GLOBALSTAR M035 [-]     
1 25851U 99037A   23318.59750488 -.00000068  00000+0 -14589-3 0  9997
2 25851  51.9952 269.7161 0013753 117.8742  52.8923 11.04526953 32106
GLOBALSTAR M032 [-]     
1 25852U 99037B   23318.54734902 -.00000068  00000+0 -57715-4 0  9995
2 25852  51.9913 135.0894 0007042 268.5018  91.4975 11.19045673 69787
GLOBALSTAR M051 [-]     
1 25853U 99037C   23318.49290848 -.00000077  00000+0 -12583-3 0  9999
2 25853  51.9826   1.7290 0001445 249.8917 110.1738 11.42192570 66037
GLOBALSTAR M030 [-]     
1 25854U 99037D   23318.43184028 -.00000127  00000+0 -10963-2 0  9991
2 25854  51.9865 204.9053 0005511  79.1527 280.9910 11.55085365 82936
GLOBALSTAR M048 [-]     
1 25872U 99041A   23318.62399125 -.00000064  00000+0  16073-3 0  9991
2 25872  51.9372 273.9943 0012820 261.7871 268.8864 11.33841040 59129
GLOBALSTAR M026 [-]     
1 25873U 99041B   23318.52768905 -.00000099  00000+0 -12975-2 0  9992
2 25873  52.0043  33.9528 0001330  31.4052 341.9341 11.06828139 84199
GLOBALSTAR M043 [-]     
1 25874U 99041C   23318.55740389 -.00000051  00000+0  52677-3 0  9993
2 25874  51.9432 358.6568 0013360  42.9088 126.9070 11.25675717 57488
GLOBALSTAR M028 [-]     
1 25875U 99041D   23318.49487904 -.00000090  00000+0  64214-4 0  9992
2 25875  51.9603 124.5259 0062598 250.0141 109.3971 12.50544437117525
